[{"OBJECT_NAME":"STARLINK-34604","OBJECT_ID":"2025-150M","EPOCH":"2026-03-09T14:29:12.660000","MEAN_MOTION":14.98330941,"ECCENTRICITY":0.0003458,"INCLINATION":70.0022,"RA_OF_ASC_NODE":134.6858,"ARG_OF_PERICENTER":265.0859,"MEAN_ANOMALY":94.9905,"EPHEMERIS_TYPE":0,"CLASSIFICATION_TYPE":"U","NORAD_CAT_ID":64801,"ELEMENT_SET_NO":999,"REV_AT_EPOCH":3650,"BSTAR":0.00028954,"MEAN_MOTION_DOT":3.364e-5,"MEAN_MOTION_DDOT":0},{"OBJECT_NAME":"CZ-4B DEB","OBJECT_ID":"2006-046E","EPOCH":"2026-03-09T15:05:34.126944","MEAN_MOTION":15.05038248,"ECCENTRICITY":0.0035443,"INCLINATION":97.6504,"RA_OF_ASC_NODE":126.4986,"ARG_OF_PERICENTER":210.976,"MEAN_ANOMALY":148.9377,"EPHEMERIS_TYPE":0,"CLASSIFICATION_TYPE":"U","NORAD_CAT_ID":29509,"ELEMENT_SET_NO":999,"REV_AT_EPOCH":5351,"BSTAR":0.00027248,"MEAN_MOTION_DOT":3.86e-5,"MEAN_MOTION_DDOT":0}]
